*******************************************************************************
Ephemeris / WWW_USER Fri Mar  7 10:44:47 2025 Pasadena, USA      / Horizons    
*******************************************************************************
Target body name: (2018 TB)                       {source: JPL#26}
Center body name: Earth (399)                     {source: DE441}
Center-site name: Mauna Kea
*******************************************************************************
Start time      : A.D. 2018-Sep-25 04:25:00.0000 UT      
Stop  time      : A.D. 2018-Sep-25 16:02:00.0000 UT      
Step-size       : 1 minutes
*******************************************************************************
Target pole/equ : undefined
Target radii    : undefined                                                    
Center geodetic : 204.5278, 19.8260847, 4.21024   {E-lon(deg),Lat(deg),Alt(km)}
Center cylindric: 204.5278, 6006.35451, 2151.0229 {E-lon(deg),Dxy(km),Dz(km)}
Center pole/equ : ITRF93                          {East-longitude positive}
Center radii    : 6378.137, 6378.137, 6356.752 km {Equator_a, b, pole_c}       
Target primary  : Sun
Vis. interferer : MOON (R_eq= 1737.400) km        {source: DE441}
Rel. light bend : Sun                             {source: DE441}
Rel. lght bnd GM: 1.3271E+11 km^3/s^2                                          
Small-body perts: Yes                             {source: SB441-N16}
Atmos refraction: NO (AIRLESS)
RA format       : HMS
Time format     : CAL 
Calendar mode   : Mixed Julian/Gregorian
RTS-only print  : NO       
EOP file        : eop.250306.p250602                                           
EOP coverage    : DATA-BASED 1962-JAN-20 TO 2025-MAR-06. PREDICTS-> 2025-JUN-01
Units conversion: 1 au= 149597870.700 km, c= 299792.458 km/s, 1 day= 86400.0 s 
Table cut-offs 1: Elevation (-90.0deg=NO ),Airmass (>38.000=NO), Daylight (YES)
Table cut-offs 2: Solar elongation (  0.0,180.0=NO ),Local Hour Angle( 0.0=NO )
Table cut-offs 3: RA/DEC angular rate (     0.0=NO )                           
*******************************************************************************
Initial IAU76/J2000 heliocentric ecliptic osculating elements (au, days, deg.):
  EPOCH=  2458410.5 ! 2018-Oct-19.00 (TDB)         Residual RMS= .12604        
   EC= .5817616216321111   QR= 1.001672821897195   TP= 2458383.1822299529      
   OM= 14.42282174156359   W=  341.1556337077549   IN= 3.61300419916586        
  Equivalent ICRF heliocentric cartesian coordinates (au, au/d):
   X= 9.381709462996228E-01  Y= 4.515017153732180E-01  Z= 2.129237315158303E-01
  VX=-5.799214133182419E-03 VY= 1.778204046057418E-02 VZ= 9.138573561666745E-03
Asteroid physical parameters (km, seconds, rotational period in hours):        
   GM= n.a.                RAD= n.a.               ROTPER= n.a.                
   H= 24.89                G= .150                 B-V= n.a.                   
                           ALBEDO= n.a.            STYP= n.a.                  
*******************************************************************************
 Date__(UT)__HR:MN     R.A._________(ICRF)_________DEC
******************************************************
$$SOE
 2018-Sep-25 10:34  m  18 02 52.687624 -49 21 44.15795
 2018-Sep-25 10:35  m  18 02 53.337925 -49 21 46.45683
 2018-Sep-25 10:36  m  18 02 53.988812 -49 21 48.75627
 2018-Sep-25 10:37  m  18 02 54.640283 -49 21 51.05628
 2018-Sep-25 10:38  m  18 02 55.292340 -49 21 53.35688
 2018-Sep-25 10:39  m  18 02 55.944981 -49 21 55.65809
 2018-Sep-25 10:40  m  18 02 56.598207 -49 21 57.95990
 2018-Sep-25 10:41  m  18 02 57.252018 -49 22 00.26235
 2018-Sep-25 10:42  m  18 02 57.906413 -49 22 02.56545
 2018-Sep-25 10:43  m  18 02 58.561393 -49 22 04.86921
 2018-Sep-25 10:44  m  18 02 59.216957 -49 22 07.17364
 2018-Sep-25 10:45  m  18 02 59.873105 -49 22 09.47875
 2018-Sep-25 10:46  m  18 03 00.529838 -49 22 11.78457
 2018-Sep-25 10:47  m  18 03 01.187154 -49 22 14.09111
 2018-Sep-25 10:48  m  18 03 01.845055 -49 22 16.39838
 2018-Sep-25 10:49  m  18 03 02.503539 -49 22 18.70640
 2018-Sep-25 10:50  m  18 03 03.162606 -49 22 21.01518
 2018-Sep-25 10:51  m  18 03 03.822257 -49 22 23.32473
 2018-Sep-25 10:52  m  18 03 04.482492 -49 22 25.63507
 2018-Sep-25 10:53  m  18 03 05.143309 -49 22 27.94621
 2018-Sep-25 10:54  m  18 03 05.804709 -49 22 30.25817
 2018-Sep-25 10:55  m  18 03 06.466691 -49 22 32.57097
 2018-Sep-25 10:56  m  18 03 07.129256 -49 22 34.88461
 2018-Sep-25 10:57  m  18 03 07.792403 -49 22 37.19911
 2018-Sep-25 10:58  m  18 03 08.456132 -49 22 39.51449
 2018-Sep-25 10:59  m  18 03 09.120443 -49 22 41.83075
 2018-Sep-25 11:00  m  18 03 09.785335 -49 22 44.14792
 2018-Sep-25 11:01  m  18 03 10.450808 -49 22 46.46601
 2018-Sep-25 11:02  m  18 03 11.116863 -49 22 48.78503
 2018-Sep-25 11:03  m  18 03 11.783498 -49 22 51.10499
 2018-Sep-25 11:04  m  18 03 12.450713 -49 22 53.42592
 2018-Sep-25 11:05  m  18 03 13.118508 -49 22 55.74782
 2018-Sep-25 11:06  m  18 03 13.786883 -49 22 58.07071
 2018-Sep-25 11:07  m  18 03 14.455838 -49 23 00.39460
 2018-Sep-25 11:08  m  18 03 15.125372 -49 23 02.71951
 2018-Sep-25 11:09  m  18 03 15.795485 -49 23 05.04546
 2018-Sep-25 11:10  m  18 03 16.466176 -49 23 07.37245
 2018-Sep-25 11:11  m  18 03 17.137445 -49 23 09.70049
 2018-Sep-25 11:12  m  18 03 17.809292 -49 23 12.02962
 2018-Sep-25 11:13  m  18 03 18.481717 -49 23 14.35983
 2018-Sep-25 11:14  m  18 03 19.154719 -49 23 16.69114
 2018-Sep-25 11:15  m  18 03 19.828298 -49 23 19.02357
 2018-Sep-25 11:16  m  18 03 20.502453 -49 23 21.35713
 2018-Sep-25 11:17  m  18 03 21.177184 -49 23 23.69184
 2018-Sep-25 11:18  m  18 03 21.852490 -49 23 26.02771
 2018-Sep-25 11:19  m  18 03 22.528372 -49 23 28.36474
 2018-Sep-25 11:20  m  18 03 23.204828 -49 23 30.70297
 2018-Sep-25 11:21  m  18 03 23.881859 -49 23 33.04240
 2018-Sep-25 11:22  m  18 03 24.559464 -49 23 35.38304
 2018-Sep-25 11:23  m  18 03 25.237643 -49 23 37.72491
 2018-Sep-25 11:24  m  18 03 25.916394 -49 23 40.06802
 2018-Sep-25 11:25  m  18 03 26.595718 -49 23 42.41239
 2018-Sep-25 11:26  m  18 03 27.275614 -49 23 44.75804
 2018-Sep-25 11:27  m  18 03 27.956082 -49 23 47.10496
 2018-Sep-25 11:28  m  18 03 28.637121 -49 23 49.45319
 2018-Sep-25 11:29  m  18 03 29.318731 -49 23 51.80273
 2018-Sep-25 11:30  m  18 03 30.000911 -49 23 54.15360
 2018-Sep-25 11:31  m  18 03 30.683660 -49 23 56.50580
 2018-Sep-25 11:32  m  18 03 31.366979 -49 23 58.85937
 2018-Sep-25 11:33  m  18 03 32.050867 -49 24 01.21430
 2018-Sep-25 11:34  m  18 03 32.735323 -49 24 03.57061
 2018-Sep-25 11:35  m  18 03 33.420346 -49 24 05.92832
 2018-Sep-25 11:36  m  18 03 34.105937 -49 24 08.28744
 2018-Sep-25 11:37  m  18 03 34.792094 -49 24 10.64798
 2018-Sep-25 11:38  m  18 03 35.478817 -49 24 13.00996
 2018-Sep-25 11:39  m  18 03 36.166105 -49 24 15.37339
 2018-Sep-25 11:40  m  18 03 36.853958 -49 24 17.73829
 2018-Sep-25 11:41  m  18 03 37.542376 -49 24 20.10466
 2018-Sep-25 11:42  m  18 03 38.231357 -49 24 22.47253
 2018-Sep-25 11:43  m  18 03 38.920901 -49 24 24.84190
 2018-Sep-25 11:44  m  18 03 39.611008 -49 24 27.21280
 2018-Sep-25 11:45  m  18 03 40.301676 -49 24 29.58523
 2018-Sep-25 11:46  m  18 03 40.992906 -49 24 31.95920
 2018-Sep-25 11:47  m  18 03 41.684697 -49 24 34.33473
 2018-Sep-25 11:48  m  18 03 42.377047 -49 24 36.71184
 2018-Sep-25 11:49  m  18 03 43.069957 -49 24 39.09054
 2018-Sep-25 11:50  m  18 03 43.763425 -49 24 41.47084
 2018-Sep-25 11:51  m  18 03 44.457452 -49 24 43.85275
 2018-Sep-25 11:52  m  18 03 45.152035 -49 24 46.23629
 2018-Sep-25 11:53  m  18 03 45.847176 -49 24 48.62147
 2018-Sep-25 11:54  m  18 03 46.542872 -49 24 51.00831
 2018-Sep-25 11:55  m  18 03 47.239124 -49 24 53.39682
 2018-Sep-25 11:56  m  18 03 47.935930 -49 24 55.78700
 2018-Sep-25 11:57  m  18 03 48.633290 -49 24 58.17889
 2018-Sep-25 11:58  m  18 03 49.331203 -49 25 00.57248
 2018-Sep-25 11:59  m  18 03 50.029669 -49 25 02.96779
 2018-Sep-25 12:00  m  18 03 50.728686 -49 25 05.36484
 2018-Sep-25 12:01  m  18 03 51.428255 -49 25 07.76364
 2018-Sep-25 12:02  m  18 03 52.128373 -49 25 10.16420
 2018-Sep-25 12:03  m  18 03 52.829041 -49 25 12.56653
 2018-Sep-25 12:04  m  18 03 53.530258 -49 25 14.97066
 2018-Sep-25 12:05  m  18 03 54.232022 -49 25 17.37658
 2018-Sep-25 12:06  m  18 03 54.934334 -49 25 19.78432
 2018-Sep-25 12:07  m  18 03 55.637192 -49 25 22.19389
 2018-Sep-25 12:08  m  18 03 56.340596 -49 25 24.60529
 2018-Sep-25 12:09  m  18 03 57.044544 -49 25 27.01855
 2018-Sep-25 12:10  m  18 03 57.749037 -49 25 29.43368
 2018-Sep-25 12:11  m  18 03 58.454072 -49 25 31.85069
 2018-Sep-25 12:12  m  18 03 59.159650 -49 25 34.26959
 2018-Sep-25 12:13  m  18 03 59.865770 -49 25 36.69040
 2018-Sep-25 12:14  m  18 04 00.572430 -49 25 39.11312
 2018-Sep-25 12:15  m  18 04 01.279629 -49 25 41.53778
 2018-Sep-25 12:16  m  18 04 01.987368 -49 25 43.96438
 2018-Sep-25 12:17  m  18 04 02.695645 -49 25 46.39294
 2018-Sep-25 12:18  m  18 04 03.404459 -49 25 48.82347
 2018-Sep-25 12:19  m  18 04 04.113809 -49 25 51.25598
 2018-Sep-25 12:20  m  18 04 04.823695 -49 25 53.69049
 2018-Sep-25 12:21  m  18 04 05.534116 -49 25 56.12701
 2018-Sep-25 12:22  m  18 04 06.245070 -49 25 58.56555
 2018-Sep-25 12:23  m  18 04 06.956556 -49 26 01.00612
 2018-Sep-25 12:24  m  18 04 07.668575 -49 26 03.44874
 2018-Sep-25 12:25  m  18 04 08.381124 -49 26 05.89342
 2018-Sep-25 12:26  m  18 04 09.094204 -49 26 08.34017
 2018-Sep-25 12:27  m  18 04 09.807813 -49 26 10.78900
 2018-Sep-25 12:28  m  18 04 10.521949 -49 26 13.23993
 2018-Sep-25 12:29  m  18 04 11.236613 -49 26 15.69297
 2018-Sep-25 12:30  m  18 04 11.951803 -49 26 18.14814
 2018-Sep-25 12:31  m  18 04 12.667518 -49 26 20.60544
 2018-Sep-25 12:32  m  18 04 13.383758 -49 26 23.06488
 2018-Sep-25 12:33  m  18 04 14.100520 -49 26 25.52648
 2018-Sep-25 12:34  m  18 04 14.817805 -49 26 27.99026
 2018-Sep-25 12:35  m  18 04 15.535612 -49 26 30.45622
 2018-Sep-25 12:36  m  18 04 16.253938 -49 26 32.92437
